IRIDIUM 155             
1 43573U 18061E   25045.15007474  .00000002  00000+0 -65165-5 0  9992
2 43573  86.3919 260.5927 0002394  89.4038 270.7432 14.34217344343414
IRIDIUM 154             
1 43574U 18061F   25045.34035178  .00000009  00000+0 -37630-5 0  9999
2 43574  86.3925 260.6223 0001915  85.9612 274.1803 14.34217707343489
IRIDIUM 163             
1 43575U 18061G   25045.53062834  .00000065  00000+0  16182-4 0  9999
2 43575  86.3919 260.4735 0002057  91.7924 268.3508 14.34217283343484
IRIDIUM 156             
1 43576U 18061H   25045.08664940  .00000388  00000+0  13160-3 0  9996
2 43576  86.3921 260.6662 0002477  86.3786 273.7693 14.34217556343401
IRIDIUM 164             
1 43577U 18061J   25045.34669505  .00000382  00000+0  12947-3 0  9994
2 43577  86.3921 260.5896 0002159  82.9376 277.2065 14.34216562343491
IRIDIUM 159             
1 43578U 18061K   25045.52428675  .00000036  00000+0  57905-5 0  9997
2 43578  86.3919 260.4625 0001833  89.9170 270.2236 14.34217655343481
IRIDIUM 180             
1 43922U 19002A   25044.96563602  .00000114  00000+0  33627-4 0  9994
2 43922  86.4002 197.6006 0002087  97.7446 262.3987 14.34217785319052
IRIDIUM 176             
1 43923U 19002B   25044.94695945  .00002039  00000+0  31954-3 0  9997
2 43923  86.6130 197.6110 0001363 113.3812 246.7549 14.72250402327415
IRIDIUM 168             
1 43924U 19002C   25045.44767343 -.00000033  00000+0 -19021-4 0  9992
2 43924  86.4009 197.4631 0001838  95.6950 264.4455 14.34216754319062
IRIDIUM 173             
1 43925U 19002D   25045.50474687  .00000491  00000+0  16835-3 0  9991
2 43925  86.4005 197.3483 0002081  96.6801 263.4632 14.34215018319068
IRIDIUM 169             
1 43926U 19002E   25045.04038173  .00000206  00000+0  60686-4 0  9995
2 43926  86.4201 229.1336 0003452 110.2203 249.9367 14.38586482320044
IRIDIUM 172             
1 43927U 19002F   25045.49841264  .00000729  00000+0  25336-3 0  9990
2 43927  86.4003 197.3570 0001872  97.9399 262.2009 14.34217286319062
IRIDIUM 175             
1 43928U 19002G   25045.41746972  .00002094  00000+0  32810-3 0  9995
2 43928  86.1559 156.9429 0003109  88.0345 272.1227 14.72250485327473
IRIDIUM 171             
1 43929U 19002H   25045.47938636  .00000041  00000+0  76198-5 0  9991
2 43929  86.4012 197.6171 0002123  82.5273 277.6164 14.34217455319054
IRIDIUM 170             
1 43930U 19002J   25044.95313297  .00001087  00000+0  16844-3 0  9996
2 43930  86.6127 197.6136 0001823 123.5742 236.5649 14.72251396327425
IRIDIUM 167             
1 43931U 19002K   25044.84512352  .00000569  00000+0  19618-3 0  9994
2 43931  86.4003 197.6481 0002434  88.5117 271.6357 14.34219081318963
IRIDIUM 181             
1 56726U 23068S   25045.09691864  .00000590  00000+0  16937-3 0  9996
2 56726  86.4460 260.6571 0002314  77.2124 282.9335 14.43312943 92036
IRIDIUM 177             
1 56727U 23068T   25045.50939913  .00002960  00000+0  38615-3 0  9993
2 56727  86.1995 200.3017 0002426 101.0202 259.1292 14.80221390 94227
IRIDIUM 174             
1 56728U 23068U   25045.50395729  .00002954  00000+0  38535-3 0  9999
2 56728  86.1998 200.4269 0002130  80.8684 279.2778 14.80222982 94221
IRIDIUM 178             
1 56729U 23068V   25044.95772608  .00001009  00000+0  12942-3 0  9997
2 56729  86.5753 229.5752 0002082  68.3291 291.8152 14.80228564 94144
IRIDIUM 179             
1 56730U 23068W   25045.01989324  .00000031  00000+0  61525-6 0  9990
2 56730  86.6752 236.7257 0002024  85.8579 274.2874 14.80229917 94155
